[{"OBJECT_NAME":"HULIANWANG DIGUI-131","OBJECT_ID":"2025-311D","EPOCH":"2026-03-09T18:59:31.368192","MEAN_MOTION":13.29330607,"ECCENTRICITY":4.19e-6,"INCLINATION":50.0041,"RA_OF_ASC_NODE":112.5577,"ARG_OF_PERICENTER":14.517,"MEAN_ANOMALY":345.5704,"EPHEMERIS_TYPE":0,"CLASSIFICATION_TYPE":"U","NORAD_CAT_ID":67239,"ELEMENT_SET_NO":999,"REV_AT_EPOCH":1011,"BSTAR":0.00010255527,"MEAN_MOTION_DOT":-7.6e-7,"MEAN_MOTION_DDOT":0},{"OBJECT_NAME":"SL-14 DEB","OBJECT_ID":"1991-056CU","EPOCH":"2026-03-09T05:09:05.802336","MEAN_MOTION":13.42707033,"ECCENTRICITY":0.01067887,"INCLINATION":82.5492,"RA_OF_ASC_NODE":144.9863,"ARG_OF_PERICENTER":98.7029,"MEAN_ANOMALY":262.6222,"EPHEMERIS_TYPE":0,"CLASSIFICATION_TYPE":"U","NORAD_CAT_ID":45469,"ELEMENT_SET_NO":999,"REV_AT_EPOCH":29202,"BSTAR":0.0019638961,"MEAN_MOTION_DOT":1.166e-5,"MEAN_MOTION_DDOT":0}]
